{
  "type": "FeatureCollection",
  "features": [
    {
      "type": "Feature",
      "properties": {
        "norad_id": 30264,
        "name": "FENGYUN 1C DEB",
        "group": "fengyun-1c-debris",
        "lat": -16.65398020920358,
        "lon": -144.6578832745728,
        "alt_km": 886.9393066928205,
        "timestamp": "2025-12-08T21:31:04.942817+00:00",
        "meta_object_name": "FENGYUN 1C DEB",
        "meta_object_id": "1999-025XZ",
        "meta_epoch": "2025-12-08T10:24:49.468032",
        "meta_mean_motion": 14.07613256,
        "meta_eccentricity": 0.01068629,
        "meta_inclination": 98.9699,
        "meta_ra_of_asc_node": 37.5908,
        "meta_arg_of_pericenter": 299.5258,
        "meta_mean_anomaly": 75.1373,
        "meta_ephemeris_type": 0,
        "meta_classification_type": "U",
        "meta_norad_cat_id": 30264,
        "meta_element_set_no": 999,
        "meta_rev_at_epoch": 96497,
        "meta_bstar": 0.0019342011,
        "meta_mean_motion_dot": 3.396e-05,
        "meta_mean_motion_ddot": 0,
        "tle_line1": "1 30264U 99025XZ  25342.43390588  .00003396  00000+0  19342-2 0  9997",
        "tle_line2": "2 30264  98.9699  37.5908 0106862 299.5258  75.1373 14.07613256964978"
      },
      "geometry": {
        "type": "Point",
        "coordinates": [
          -144.6578832745728,
          -16.65398020920358
        ]
      }
    },
    {
      "type": "Feature",
      "properties": {
        "norad_id": 30265,
        "name": "FENGYUN 1C DEB",
        "group": "fengyun-1c-debris",
        "lat": -53.476839994988865,
        "lon": -100.02304856195587,
        "alt_km": 722.5576474303716,
        "timestamp": "2025-12-08T21:31:04.942827+00:00",
        "meta_object_name": "FENGYUN 1C DEB",
        "meta_object_id": "1999-025YA",
        "meta_epoch": "2025-12-07T13:27:33.255648",
        "meta_mean_motion": 14.58454241,
        "meta_eccentricity": 0.00284212,
        "meta_inclination": 98.6628,
        "meta_ra_of_asc_node": 90.4653,
        "meta_arg_of_pericenter": 29.3388,
        "meta_mean_anomaly": 35.6689,
        "meta_ephemeris_type": 0,
        "meta_classification_type": "U",
        "meta_norad_cat_id": 30265,
        "meta_element_set_no": 999,
        "meta_rev_at_epoch": 98326,
        "meta_bstar": 0.0037464511,
        "meta_mean_motion_dot": 0.0001747,
        "meta_mean_motion_ddot": 0,
        "tle_line1": "1 30265U 99025YA  25341.56080157  .00017470  00000+0  37465-2 0  9993",
        "tle_line2": "2 30265  98.6628  90.4653 0028421  29.3388  35.6689 14.58454241983267"
      },
      "geometry": {
        "type": "Point",
        "coordinates": [
          -100.02304856195587,
          -53.476839994988865
        ]
      }
    },
    {
      "type": "Feature",
      "properties": {
        "norad_id": 30266,
        "name": "FENGYUN 1C DEB",
        "group": "fengyun-1c-debris",
        "lat": 49.61264553389797,
        "lon": -122.15437092506131,
        "alt_km": 800.7738549162505,
        "timestamp": "2025-12-08T21:31:04.942837+00:00",
        "meta_object_name": "FENGYUN 1C DEB",
        "meta_object_id": "1999-025YB",
        "meta_epoch": "2025-12-08T10:48:54.452736",
        "meta_mean_motion": 14.15052181,
        "meta_eccentricity": 0.00830346,
        "meta_inclination": 99.0423,
        "meta_ra_of_asc_node": 46.6048,
        "meta_arg_of_pericenter": 78.1831,
        "meta_mean_anomaly": 300.0084,
        "meta_ephemeris_type": 0,
        "meta_classification_type": "U",
        "meta_norad_cat_id": 30266,
        "meta_element_set_no": 999,
        "meta_rev_at_epoch": 96729,
        "meta_bstar": 0.0018562448,
        "meta_mean_motion_dot": 3.674e-05,
        "meta_mean_motion_ddot": 0,
        "tle_line1": "1 30266U 99025YB  25342.45063024  .00003674  00000+0  18562-2 0  9995",
        "tle_line2": "2 30266  99.0423  46.6048 0083034  78.1831 300.0084 14.15052181967296"
      },
      "geometry": {
        "type": "Point",
        "coordinates": [
          -122.15437092506131,
          49.61264553389797
        ]
      }
    },
    {
      "type": "Feature",
      "properties": {
        "norad_id": 30267,
        "name": "FENGYUN 1C DEB",
        "group": "fengyun-1c-debris",
        "lat": -72.23653278236708,
        "lon": 83.13399741713232,
        "alt_km": 784.4990381215284,
        "timestamp": "2025-12-08T21:31:04.942847+00:00",
        "meta_object_name": "FENGYUN 1C DEB",
        "meta_object_id": "1999-025YC",
        "meta_epoch": "2025-12-08T11:44:42.447552",
        "meta_mean_motion": 14.2356092,
        "meta_eccentricity": 0.00586944,
        "meta_inclination": 98.8495,
        "meta_ra_of_asc_node": 53.6267,
        "meta_arg_of_pericenter": 255.2435,
        "meta_mean_anomaly": 104.2234,
        "meta_ephemeris_type": 0,
        "meta_classification_type": "U",
        "meta_norad_cat_id": 30267,
        "meta_element_set_no": 999,
        "meta_rev_at_epoch": 97234,
        "meta_bstar": 0.0023811599,
        "meta_mean_motion_dot": 5.476e-05,
        "meta_mean_motion_ddot": 0,
        "tle_line1": "1 30267U 99025YC  25342.48938018  .00005476  00000+0  23812-2 0  9999",
        "tle_line2": "2 30267  98.8495  53.6267 0058694 255.2435 104.2234 14.23560920972343"
      },
      "geometry": {
        "type": "Point",
        "coordinates": [
          83.13399741713232,
          -72.23653278236708
        ]
      }
    },
    {
      "type": "Feature",
      "properties": {
        "norad_id": 30270,
        "name": "FENGYUN 1C DEB",
        "group": "fengyun-1c-debris",
        "lat": 79.64520635233434,
        "lon": -60.21595518995478,
        "alt_km": 847.1945473136057,
        "timestamp": "2025-12-08T21:31:04.942857+00:00",
        "meta_object_name": "FENGYUN 1C DEB",
        "meta_object_id": "1999-025YF",
        "meta_epoch": "2025-12-08T14:51:27.260928",
        "meta_mean_motion": 14.11268455,
        "meta_eccentricity": 0.00072286,
        "meta_inclination": 98.7023,
        "meta_ra_of_asc_node": 356.4681,
        "meta_arg_of_pericenter": 170.3791,
        "meta_mean_anomaly": 304.9206,
        "meta_ephemeris_type": 0,
        "meta_classification_type": "U",
        "meta_norad_cat_id": 30270,
        "meta_element_set_no": 999,
        "meta_rev_at_epoch": 97303,
        "meta_bstar": 0.00021602291,
        "meta_mean_motion_dot": 3.48e-06,
        "meta_mean_motion_ddot": 0,
        "tle_line1": "1 30270U 99025YF  25342.61906552  .00000348  00000+0  21602-3 0  9995",
        "tle_line2": "2 30270  98.7023 356.4681 0007228 170.3791 304.9206 14.11268455973036"
      },
      "geometry": {
        "type": "Point",
        "coordinates": [
          -60.21595518995478,
          79.64520635233434
        ]
      }
    },
    {
      "type": "Feature",
      "properties": {
        "norad_id": 30272,
        "name": "FENGYUN 1C DEB",
        "group": "fengyun-1c-debris",
        "lat": -81.03374563895107,
        "lon": 147.2666957292017,
        "alt_km": 884.0368584632961,
        "timestamp": "2025-12-08T21:31:04.942867+00:00",
        "meta_object_name": "FENGYUN 1C DEB",
        "meta_object_id": "1999-025YH",
        "meta_epoch": "2025-12-08T03:16:46.861536",
        "meta_mean_motion": 14.14679742,
        "meta_eccentricity": 0.00512172,
        "meta_inclination": 98.9011,
        "meta_ra_of_asc_node": 49.8453,
        "meta_arg_of_pericenter": 116.7076,
        "meta_mean_anomaly": 243.9353,
        "meta_ephemeris_type": 0,
        "meta_classification_type": "U",
        "meta_norad_cat_id": 30272,
        "meta_element_set_no": 999,
        "meta_rev_at_epoch": 96791,
        "meta_bstar": 0.0016776889,
        "meta_mean_motion_dot": 3.226e-05,
        "meta_mean_motion_ddot": 0,
        "tle_line1": "1 30272U 99025YH  25342.13665349  .00003226  00000+0  16777-2 0  9994",
        "tle_line2": "2 30272  98.9011  49.8453 0051217 116.7076 243.9353 14.14679742967917"
      },
      "geometry": {
        "type": "Point",
        "coordinates": [
          147.2666957292017,
          -81.03374563895107
        ]
      }
    },
    {
      "type": "Feature",
      "properties": {
        "norad_id": 30273,
        "name": "FENGYUN 1C DEB",
        "group": "fengyun-1c-debris",
        "lat": 51.72622282347529,
        "lon": -13.804304948711943,
        "alt_km": 918.6272702436436,
        "timestamp": "2025-12-08T21:31:04.942877+00:00",
        "meta_object_name": "FENGYUN 1C DEB",
        "meta_object_id": "1999-025YJ",
        "meta_epoch": "2025-12-08T13:18:40.577184",
        "meta_mean_motion": 14.02651883,
        "meta_eccentricity": 0.00604849,
        "meta_inclination": 98.8408,
        "meta_ra_of_asc_node": 357.2402,
        "meta_arg_of_pericenter": 261.2898,
        "meta_mean_anomaly": 225.3282,
        "meta_ephemeris_type": 0,
        "meta_classification_type": "U",
        "meta_norad_cat_id": 30273,
        "meta_element_set_no": 999,
        "meta_rev_at_epoch": 96470,
        "meta_bstar": 0.00092105022,
        "meta_mean_motion_dot": 1.401e-05,
        "meta_mean_motion_ddot": 0,
        "tle_line1": "1 30273U 99025YJ  25342.55463631  .00001401  00000+0  92105-3 0  9994",
        "tle_line2": "2 30273  98.8408 357.2402 0060484 261.2898 225.3282 14.02651883964703"
      },
      "geometry": {
        "type": "Point",
        "coordinates": [
          -13.804304948711943,
          51.72622282347529
        ]
      }
    }
  ]
}